54655,ONEWEB-0589,2022,108.94,148.0,+,87.93,Active,1,LEO,USA,UK,Commercial,Communications,Falcon,1 54655U 22166P   25109.52382495  .00000006  00000+0 -16250-4 0  9991,2 54655  87.9277 328.4787 0002677  87.5268 272.6172 13.21823486115578,13.21823486,0.0002677,LEO
54656,ONEWEB-0590,2022,108.94,148.0,+,87.93,Active,1,LEO,USA,UK,Commercial,Communications,Falcon,1 54656U 22166Q   25110.15294126  .00000026  00000+0  30376-4 0  9992,2 54656  87.9263 328.3423 0001866 101.0341 259.1003 13.21826615116103,13.21826615,0.0001866,LEO
54657,ONEWEB-0591,2022,108.94,148.0,+,87.93,Active,1,LEO,USA,UK,Commercial,Communications,Falcon,1 54657U 22166R   25110.16567713 -.00000034  00000+0 -11481-3 0  9995,2 54657  87.9275 328.3520 0001908  88.4174 271.7179 13.21824943116133,13.21824943,0.0001908,LEO
54658,ONEWEB-0592,2022,108.94,148.0,+,87.93,Active,1,LEO,USA,UK,Commercial,Communications,Falcon,1 54658U 22166S   25109.56325069 -.00000220  00000+0 -56416-3 0  9998,2 54658  87.9272 328.4258 0001901  88.6272 271.5080 13.21824614115474,13.21824614,0.0001901,LEO
54659,ONEWEB-0593,2022,108.94,148.0,+,87.93,Active,1,LEO,USA,UK,Commercial,Communications,Falcon,1 54659U 22166T   25110.57096821 -.00000104  00000+0 -28430-3 0  9999,2 54659  87.9272 328.2623 0001991  87.7111 272.4251 13.21824604116188,13.21824604,0.0001991,LEO
54660,ONEWEB-0594,2022,108.94,148.0,+,87.93,Active,1,LEO,USA,UK,Commercial,Communications,Falcon,1 54660U 22166U   25109.53014489 -.00000001  00000+0 -33870-4 0  9996,2 54660  87.9279 328.4796 0001768  83.3766 276.7569 13.21824740115594,13.2182474,0.0001768,LEO
54661,ONEWEB-0595,2022,108.94,148.0,+,87.93,Active,1,LEO,USA,UK,Commercial,Communications,Falcon,1 54661U 22166V   25110.11362449 -.00000234  00000+0 -59725-3 0  9999,2 54661  87.9275 328.3437 0001578  88.5705 271.5610 13.21825122116115,13.21825122,0.0001578,LEO
54662,ONEWEB-0596,2022,108.94,148.0,+,87.93,Active,1,LEO,USA,UK,Commercial,Communications,Falcon,1 54662U 22166W   25110.16251030  .00000055  00000+0  10103-3 0  9994,2 54662  87.9279 328.3454 0001796  90.3918 269.7422 13.21823680116126,13.2182368,0.0001796,LEO
